XRISM                   
1 57800U 23137A   24142.76236729  .00006441  00000+0  48674-3 0  9997
2 57800  31.0019 180.7882 0009625 305.2933  54.6802 15.00942716 38637
